{
  "norad_id": 66368,
  "name": "STARLINK-34861",
  "history": [
    {
      "epoch": "2026-03-28T20:49:04.553184Z",
      "apogee_km": 476.6688433824447,
      "perigee_km": 473.7394512424371,
      "latitude_deg": -4.985243162856095e-05,
      "longitude_deg": 2.5222932805313647,
      "height_km": 476.0873461182879,
      "semi_major_axis_km": 6853.341147312441,
      "eccentricity": 0.00021372,
      "inclination_deg": 53.1605,
      "raan_deg": 141.073,
      "arg_perigee_deg": 89.4641,
      "mean_anomaly_deg": 270.6604,
      "mean_motion_rev_day": 15.30203658
    }
  ]
}