{"fetched_at":"2026-03-29T16:36:15Z","count":15609,"tles":[{"name":"STARLINK-34861","line1":"1 66368U 25254W   26087.86741381  .00023645  00000+0  80782-3 0  9995","line2":"2 66368  53.1605 141.0730 0002137  89.4641 270.6604 15.30203658 21946","category":"Starlink"}]}